NORAD_CAT_ID,OBJECT_NAME,OBJECT_TYPE,EPOCH,MEAN_MOTION,ECCENTRICITY,INCLINATION,RA_OF_ASC_NODE,ARG_OF_PERICENTER,MEAN_ANOMALY,BSTAR,MEAN_MOTION_DOT,MEAN_MOTION_DDOT,TLE_LINE0,TLE_LINE1,TLE_LINE2,SEMIMAJOR_AXIS,PERIOD,APOGEE,PERIGEE,DECAYED
50830.0,STARLINK-3278,PAYLOAD,2024-04-07 08:47:58,15.08838167,0.0001363,53.2163,87.478,92.096,268.0189,2.1907e-05,6.1e-07,0.0,0 STARLINK-3278,1 50830U 22001AD  24098.36665074  .00000061  00000-0  21907-4 0  9991,2 50830  53.2163  87.4780 0001363  92.0960 268.0189 15.08838167124391,6917.886,95.438,540.694,538.808,0.0
50830.0,STARLINK-3278,PAYLOAD,2024-04-07 16:44:54,15.08841192,0.0001412,53.2173,85.9916,90.5413,269.574,4.8443e-05,4.83e-06,0.0,0 STARLINK-3278,1 50830U 22001AD  24098.69784842  .00000483  00000-0  48443-4 0  9994,2 50830  53.2173  85.9916 0001412  90.5413 269.5740 15.08841192124444,6917.877,95.437,540.719,538.765,0.0
50830.0,STARLINK-3278,PAYLOAD,2024-04-08 05:27:58,15.0884546,0.0001374,53.2167,83.6124,91.7517,268.3632,9.2582e-05,1.186e-05,0.0,0 STARLINK-3278,1 50830U 22001AD  24099.22776362  .00001186  00000-0  92582-4 0  9996,2 50830  53.2167  83.6124 0001374  91.7517 268.3632 15.08845460125796,6917.864,95.437,540.679,538.778,0.0
50830.0,STARLINK-3278,PAYLOAD,2024-04-08 08:38:44,15.08847579,0.0001394,53.2168,83.0176,91.8931,268.2221,9.1282e-05,1.165e-05,0.0,0 STARLINK-3278,1 50830U 22001AD  24099.36024193  .00001165  00000-0  91282-4 0  9992,2 50830  53.2168  83.0176 0001394  91.8931 268.2221 15.08847579124549,6917.857,95.437,540.687,538.758,0.0
50830.0,STARLINK-3278,PAYLOAD,2024-04-08 22:57:13,15.08836675,0.000151,53.2167,80.3403,94.629,265.4874,3.3945e-05,2.52e-06,0.0,0 STARLINK-3278,1 50830U 22001AD  24099.95641072  .00000252  00000-0  33945-4 0  9996,2 50830  53.2167  80.3403 0001510  94.6290 265.4874 15.08836675124638,6917.891,95.438,540.8,538.711,0.0
50830.0,STARLINK-3278,PAYLOAD,2024-04-09 05:18:46,15.08838634,0.0001316,53.2172,79.1519,92.7575,267.3568,6.1776e-05,6.95e-06,0.0,0 STARLINK-3278,1 50830U 22001AD  24100.22136909  .00000695  00000-0  61776-4 0  9991,2 50830  53.2172  79.1519 0001316  92.7575 267.3568 15.08838634125940,6917.885,95.438,540.66,538.839,0.0
50830.0,STARLINK-3278,PAYLOAD,2024-04-09 08:29:32,15.08840368,0.0001329,53.2175,78.5573,92.6995,267.4149,5.0306e-05,5.13e-06,0.0,0 STARLINK-3278,1 50830U 22001AD  24100.35384853  .00000513  00000-0  50306-4 0  9994,2 50830  53.2175  78.5573 0001329  92.6995 267.4149 15.08840368124699,6917.879,95.438,540.664,538.825,0.0
50830.0,STARLINK-3278,PAYLOAD,2024-04-10 08:20:19,15.08844454,0.0001302,53.2177,74.0973,93.2583,266.8558,2.0641e-05,4.1e-07,0.0,0 STARLINK-3278,1 50830U 22001AD  24101.34744697  .00000041  00000-0  20641-4 0  9995,2 50830  53.2177  74.0973 0001302  93.2583 266.8558 15.08844454126113,6917.867,95.437,540.632,538.831,0.0
50830.0,STARLINK-3278,PAYLOAD,2024-04-10 14:41:52,15.08843528,0.0001298,53.2174,72.9077,91.1489,268.9652,-3.7027e-05,-8.77e-06,0.0,0 STARLINK-3278,1 50830U 22001AD  24101.61240859 -.00000877  00000-0 -37027-4 0  9991,2 50830  53.2174  72.9077 0001298  91.1489 268.9652 15.08843528124889,6917.87,95.437,540.633,538.837,0.0
50830.0,STARLINK-3278,PAYLOAD,2024-04-11 05:00:20,15.08834411,0.0001331,53.2184,70.2337,94.69,265.4244,9.0283e-06,-1.44e-06,0.0,0 STARLINK-3278,1 50830U 22001AD  24102.20857606 -.00000144  00000-0  90283-5 0  9991,2 50830  53.2184  70.2337 0001331  94.6900 265.4244 15.08834411126246,6917.897,95.438,540.683,538.842,0.0
50830.0,STARLINK-3278,PAYLOAD,2024-04-11 14:32:39,15.0883613,0.0001353,53.2186,68.4493,94.67,265.4447,2.9148e-05,1.76e-06,0.0,0 STARLINK-3278,1 50830U 22001AD  24102.60601570  .00000176  00000-0  29148-4 0  9997,2 50830  53.2186  68.4493 0001353  94.6700 265.4447 15.08836130125033,6917.892,95.438,540.693,538.821,0.0
50830.0,STARLINK-3278,PAYLOAD,2024-04-12 06:26:31,15.08840297,0.0001408,53.2186,65.4765,101.4362,258.6789,4.8951e-05,4.91e-06,0.0,0 STARLINK-3278,1 50830U 22001AD  24103.26841492  .00000491  00000-0  48951-4 0  9992,2 50830  53.2186  65.4765 0001408 101.4362 258.6789 15.08840297126408,6917.879,95.438,540.719,538.77,0.0
50830.0,STARLINK-3278,PAYLOAD,2024-04-13 04:41:55,15.08822293,0.0001517,53.2186,61.3132,99.6497,260.4666,0.00036384,5.505e-05,0.0,0 STARLINK-3278,1 50830U 22001AD  24104.19577935  .00005505  00000-0  36384-3 0  9990,2 50830  53.2186  61.3132 0001517  99.6497 260.4666 15.08822293126545,6917.935,95.439,540.849,538.75,0.0
50830.0,STARLINK-3278,PAYLOAD,2024-04-13 06:17:18,15.08822297,0.0001507,53.2184,61.0154,97.309,262.8074,0.00037803,5.731e-05,0.0,0 STARLINK-3278,1 50830U 22001AD  24104.26201983  .00005731  00000-0  37803-3 0  9993,2 50830  53.2184  61.0154 0001507  97.3090 262.8074 15.08822297125280,6917.935,95.439,540.842,538.757,0.0
50830.0,STARLINK-3278,PAYLOAD,2024-04-14 04:32:42,15.08845447,0.000168,53.2194,56.853,75.1909,284.9269,0.00010147,1.327e-05,0.0,0 STARLINK-3278,1 50830U 22001AD  24105.18937578  .00001327  00000-0  10147-3 0  9990,2 50830  53.2194  56.8530 0001680  75.1909 284.9269 15.08845447126695,6917.864,95.437,540.891,538.567,0.0
50830.0,STARLINK-3278,PAYLOAD,2024-04-15 05:58:52,15.08850115,0.0001903,53.2211,52.0874,76.3387,283.7817,5.6043e-05,6.04e-06,0.0,0 STARLINK-3278,1 50830U 22001AD  24106.24921316  .00000604  00000-0  56043-4 0  9994,2 50830  53.2211  52.0874 0001903  76.3387 283.7817 15.08850115126857,6917.849,95.437,541.031,538.398,0.0
50830.0,STARLINK-3278,PAYLOAD,2024-04-16 01:03:29,15.08846632,0.0001535,53.219,48.5193,100.5002,259.6164,-2.5202e-06,-3.28e-06,0.0,0 STARLINK-3278,1 50830U 22001AD  24107.04409381 -.00000328  00000-0 -25202-5 0  9995,2 50830  53.2190  48.5193 0001535 100.5002 259.6164 15.08846632126971,6917.86,95.437,540.787,538.663,0.0
50830.0,STARLINK-3278,PAYLOAD,2024-04-17 02:29:38,15.08873462,0.0001309,53.2171,43.7662,105.5472,254.5664,0.00040448,6.161e-05,0.0,0 STARLINK-3278,1 50830U 22001AD  24108.10391738  .00006161  00000-0  40448-3 0  9995,2 50830  53.2171  43.7662 0001309 105.5472 254.5664 15.08873462127132,6917.778,95.435,540.549,538.738,0.0
50830.0,STARLINK-3278,PAYLOAD,2024-04-17 05:40:24,15.08872163,0.0001597,53.2176,43.1701,117.2782,242.8373,0.00037279,5.655e-05,0.0,0 STARLINK-3278,1 50830U 22001AD  24108.23639498  .00005655  00000-0  37279-3 0  9992,2 50830  53.2176  43.1701 0001597 117.2782 242.8373 15.08872163125882,6917.782,95.436,540.752,538.542,0.0
50830.0,STARLINK-3278,PAYLOAD,2024-04-18 00:45:02,15.08866389,0.0001366,53.2187,39.6029,98.6347,261.48,0.00043449,6.639e-05,0.0,0 STARLINK-3278,1 50830U 22001AD  24109.03128076  .00006639  00000-0  43449-3 0  9995,2 50830  53.2187  39.6029 0001366  98.6347 261.4800 15.08866389127270,6917.8,95.436,540.61,538.72,0.0
50830.0,STARLINK-3278,PAYLOAD,2024-04-18 23:00:27,15.08832194,0.000136,53.2174,35.4393,118.6431,241.4698,-0.0002459,-4.198e-05,0.0,0 STARLINK-3278,1 50830U 22001AD  24109.95865040 -.00004198  00000-0 -24590-3 0  9991,2 50830  53.2174  35.4393 0001360 118.6431 241.4698 15.08832194126140,6917.904,95.438,540.71,538.828,0.0
50830.0,STARLINK-3278,PAYLOAD,2024-04-19 03:46:36,15.08840969,0.0001378,53.218,34.548,118.9849,241.1281,-0.00015447,-2.746e-05,0.0,0 STARLINK-3278,1 50830U 22001AD  24110.15736934 -.00002746  00000-0 -15447-3 0  9992,2 50830  53.2180  34.5480 0001378 118.9849 241.1281 15.08840969127447,6917.877,95.437,540.696,538.789,0.0
50830.0,STARLINK-3278,PAYLOAD,2024-04-19 22:51:14,15.08847014,0.0001382,53.219,30.9809,121.008,239.1048,9.2601e-05,1.186e-05,0.0,0 STARLINK-3278,1 50830U 22001AD  24110.95225360  .00001186  00000-0  92601-4 0  9999,2 50830  53.2190  30.9809 0001382 121.0080 239.1048 15.08847014126298,6917.859,95.437,540.68,538.768,0.0
50830.0,STARLINK-3278,PAYLOAD,2024-04-20 03:37:23,15.08870132,0.0001095,53.2178,30.0868,110.7565,249.3545,0.00098279,0.00015401,0.0,0 STARLINK-3278,1 50830U 22001AD  24111.15096652  .00015401  00000-0  98279-3 0  9993,2 50830  53.2178  30.0868 0001095 110.7565 249.3545 15.08870132127590,6917.788,95.436,540.411,538.896,0.0
50830.0,STARLINK-3278,PAYLOAD,2024-04-20 17:55:53,15.08830808,0.0001675,53.2189,27.4136,98.2091,261.9091,-4.5478e-05,-1.012e-05,0.0,0 STARLINK-3278,1 50830U 22001AD  24111.74714407 -.00001012  00000-0 -45478-4 0  9992,2 50830  53.2189  27.4136 0001675  98.2091 261.9091 15.08830808127680,6917.908,95.438,540.932,538.615,0.0
50830.0,STARLINK-3278,PAYLOAD,2024-04-21 03:28:12,15.08827481,0.0001294,53.2186,25.6268,103.8291,256.2845,-6.0269e-05,-1.247e-05,0.0,0 STARLINK-3278,1 50830U 22001AD  24112.14458834 -.00001247  00000-0 -60269-4 0  9991,2 50830  53.2186  25.6268 0001294 103.8291 256.2845 15.08827481126478,6917.919,95.438,540.679,538.888,0.0
50830.0,STARLINK-3278,PAYLOAD,2024-04-21 22:32:50,15.08839929,0.0001269,53.2184,22.0585,94.027,266.0868,0.00023157,3.399e-05,0.0,0 STARLINK-3278,1 50830U 22001AD  24112.93946992  .00003399  00000-0  23157-3 0  9997,2 50830  53.2184  22.0585 0001269  94.0270 266.0868 15.08839929126596,6917.881,95.438,540.623,538.868,0.0
50830.0,STARLINK-3278,PAYLOAD,2024-04-22 03:18:59,15.08859143,0.0001523,53.2188,21.165,111.9483,248.1672,0.001382,0.00021786,0.0,0 STARLINK-3278,1 50830U 22001AD  24113.13818806  .00021786  00000-0  13820-2 0  9997,2 50830  53.2188  21.1650 0001523 111.9483 248.1672 15.08859143127899,6917.822,95.436,540.74,538.633,0.0
50830.0,STARLINK-3278,PAYLOAD,2024-04-22 17:37:28,15.08839186,0.0001572,53.2181,18.4935,85.8503,274.2669,0.00021273,3.099e-05,0.0,0 STARLINK-3278,1 50830U 22001AD  24113.73435390  .00003099  00000-0  21273-3 0  9995,2 50830  53.2181  18.4935 0001572  85.8503 274.2669 15.08839186127984,6917.883,95.438,540.835,538.66,0.0
50830.0,STARLINK-3278,PAYLOAD,2024-04-22 22:23:37,15.08845094,0.0001638,53.2178,17.6049,94.9208,265.1971,0.0002702,4.015e-05,0.0,0 STARLINK-3278,1 50830U 22001AD  24113.93307156  .00004015  00000-0  27020-3 0  9990,2 50830  53.2178  17.6049 0001638  94.9208 265.1971 15.08845094126746,6917.865,95.437,540.863,538.597,0.0
